[{"OBJECT_NAME":"STARLINK-32787","OBJECT_ID":"2025-018D","EPOCH":"2026-03-09T23:22:59.641824","MEAN_MOTION":15.30210617,"ECCENTRICITY":0.00012012,"INCLINATION":53.16,"RA_OF_ASC_NODE":308.1582,"ARG_OF_PERICENTER":76.7518,"MEAN_ANOMALY":283.3617,"EPHEMERIS_TYPE":0,"CLASSIFICATION_TYPE":"U","NORAD_CAT_ID":62809,"ELEMENT_SET_NO":999,"REV_AT_EPOCH":6321,"BSTAR":0.00082936007,"MEAN_MOTION_DOT":0.00024292,"MEAN_MOTION_DDOT":0},{"OBJECT_NAME":"TEVEL2-3","OBJECT_ID":"2025-052J","EPOCH":"2026-03-09T15:29:22.754400","MEAN_MOTION":15.30377031,"ECCENTRICITY":0.0004761,"INCLINATION":97.3994,"RA_OF_ASC_NODE":324.7775,"ARG_OF_PERICENTER":105.7353,"MEAN_ANOMALY":254.4413,"EPHEMERIS_TYPE":0,"CLASSIFICATION_TYPE":"U","NORAD_CAT_ID":63218,"ELEMENT_SET_NO":999,"REV_AT_EPOCH":5485,"BSTAR":0.00069446,"MEAN_MOTION_DOT":0.00020365,"MEAN_MOTION_DDOT":0}]
